[
  {
    "name": "KUIPER-00527",
    "noradId": "69269",
    "line1": "1 69269U 26118C   26202.25003472 -.00069723  00000+0 -38735-2 0  9991",
    "line2": "2 69269  51.8815 250.1335 0008818 315.7914 244.8232 15.13404107  2874"
  },
  {
    "name": "KUIPER-00562",
    "noradId": "69270",
    "line1": "1 69270U 26118D   26202.16160096  .00019029  00000+0  50729-3 0  9999",
    "line2": "2 69270  51.8709 248.6313 0000738  47.6524 312.4525 15.38178909  9214"
  },
  {
    "name": "KUIPER-00570",
    "noradId": "69271",
    "line1": "1 69271U 26118E   26202.25003472 -.00058916  00000+0 -59364-2 0  9997",
    "line2": "2 69271  51.8937 252.9777 0006302 322.4785 212.9461 14.90906041  4554"
  },
  {
    "name": "KUIPER-00572",
    "noradId": "69272",
    "line1": "1 69272U 26118F   26202.25003472 -.01813520  00000+0 -10965+0 0  9990",
    "line2": "2 69272  51.8788 249.7959 0003243 317.8923  69.3497 15.13577125  3586"
  },
  {
    "name": "KUIPER-00581",
    "noradId": "69273",
    "line1": "1 69273U 26118G   26202.25003472 -.00064670  00000+0 -69761-2 0  9995",
    "line2": "2 69273  51.8998 252.7348 0005356 310.1966  17.0566 14.88222321  3545"
  },
  {
    "name": "KUIPER-00584",
    "noradId": "69274",
    "line1": "1 69274U 26118H   26202.25003472 -.00067170  00000+0 -83959-2 0  9999",
    "line2": "2 69274  51.9002 255.1702 0008575 335.0841 179.6049 14.82192995  5795"
  },
  {
    "name": "KUIPER-00587",
    "noradId": "69275",
    "line1": "1 69275U 26118J   26202.25003472 -.00018996  00000+0 -63192-3 0  9990",
    "line2": "2 69275  51.8661 248.9277 0007691 322.4539 169.5662 15.30078242  5729"
  },
  {
    "name": "KUIPER-00590",
    "noradId": "69276",
    "line1": "1 69276U 26118K   26202.25003472 -.00046444  00000+0 -36085-2 0  9990",
    "line2": "2 69276  51.8894 250.9083 0002702   5.8016 287.3937 15.00920014  3784"
  },
  {
    "name": "KUIPER-00592",
    "noradId": "69277",
    "line1": "1 69277U 26118L   26202.25003472 -.00096670  00000+0 -68916-2 0  9995",
    "line2": "2 69277  51.8844 250.4716 0002461 226.4600 299.7151 15.04540400  5429"
  },
  {
    "name": "KUIPER-00593",
    "noradId": "69278",
    "line1": "1 69278U 26118M   26202.16093051  .00019567  00000+0  51060-3 0  9999",
    "line2": "2 69278  51.8702 248.6307 0002767 308.7383  51.3356 15.38817667  9274"
  },
  {
    "name": "KUIPER-00594",
    "noradId": "69279",
    "line1": "1 69279U 26118N   26201.38611153  .00004288  00000+0  12515-3 0  9998",
    "line2": "2 69279  51.8693 252.4360 0001986  90.5970 269.5245 15.37506291  9093"
  },
  {
    "name": "KUIPER-00595",
    "noradId": "69280",
    "line1": "1 69280U 26118P   26201.84367011  .00015469  00000+0  42313-3 0  9994",
    "line2": "2 69280  51.8701 250.2506 0001505  16.2037 343.8998 15.37540236  9198"
  },
  {
    "name": "KUIPER-00596",
    "noradId": "69281",
    "line1": "1 69281U 26118Q   26202.25003472 -.00064384  00000+0 -81276-2 0  9991",
    "line2": "2 69281  51.9014 255.0523 0006398 351.9823 255.9801 14.81772951  5467"
  },
  {
    "name": "KUIPER-00597",
    "noradId": "69282",
    "line1": "1 69282U 26118R   26201.41430743  .00011537  00000+0  31497-3 0  9995",
    "line2": "2 69282  51.8634 252.5953 0006285 309.8183  50.2250 15.37864882  9094"
  },
  {
    "name": "KUIPER-00599",
    "noradId": "69283",
    "line1": "1 69283U 26118S   26202.25003472 -.00879918  00000+0 -37418-1 0  9998",
    "line2": "2 69283  51.8758 248.8450 0005702 306.5394 254.7519 15.25355792  4358"
  },
  {
    "name": "KUIPER-00600",
    "noradId": "69284",
    "line1": "1 69284U 26118T   26201.36075485  .00012591  00000+0  34636-3 0  9998",
    "line2": "2 69284  51.8621 252.9790 0008049 309.1896  50.8375 15.37528222  9087"
  },
  {
    "name": "KUIPER-00601",
    "noradId": "69285",
    "line1": "1 69285U 26118U   26202.25003472 -.00356032  00000+0 -27377-1 0  9990",
    "line2": "2 69285  51.9042 250.6345 0002398 308.9071  62.7358 15.03150094  4977"
  },
  {
    "name": "KUIPER-00602",
    "noradId": "69286",
    "line1": "1 69286U 26118V   26202.25003472 -.00028293  00000+0 -80882-3 0  9998",
    "line2": "2 69286  51.8699 248.2661 0002597 309.4780 153.9364 15.35148394  5609"
  },
  {
    "name": "KUIPER-00603",
    "noradId": "69287",
    "line1": "1 69287U 26118W   26202.25003472 -.01188571  00000+0 -48125-1 0  9998",
    "line2": "2 69287  51.8737 248.7079 0002922 302.5594 275.7934 15.26925797  5156"
  },
  {
    "name": "KUIPER-00605",
    "noradId": "69288",
    "line1": "1 69288U 26118X   26202.25003472 -.00061408  00000+0 -62067-2 0  9999",
    "line2": "2 69288  51.8959 252.8027 0004377  33.9579  55.4607 14.90812550  4506"
  },
  {
    "name": "KUIPER-00606",
    "noradId": "69289",
    "line1": "1 69289U 26118Y   26202.25003472 -.01201279  00000+0 -52707-1 0  9992",
    "line2": "2 69289  51.8786 248.6832 0002524 313.6689 298.1416 15.24308541  5484"
  },
  {
    "name": "KUIPER-00607",
    "noradId": "69290",
    "line1": "1 69290U 26118Z   26201.40365948  .00016285  00000+0  43741-3 0  9997",
    "line2": "2 69290  51.8665 252.5363 0005060 296.3958  63.6509 15.38055656  9099"
  },
  {
    "name": "KUIPER-00608",
    "noradId": "69291",
    "line1": "1 69291U 26118AA  26201.42795747 -.00027115  00000+0 -81896-3 0  9993",
    "line2": "2 69291  51.8596 253.3933 0008178 320.5048  39.5340 15.33365755  9081"
  },
  {
    "name": "KUIPER-00610",
    "noradId": "69292",
    "line1": "1 69292U 26118AB  26202.25003472 -.00028738  00000+0 -82348-3 0  9998",
    "line2": "2 69292  51.8719 248.1754 0001242  24.4477 120.9923 15.35087556  4712"
  },
  {
    "name": "KUIPER-00613",
    "noradId": "69293",
    "line1": "1 69293U 26118AC  26202.25003472 -.00060270  00000+0 -62310-2 0  9992",
    "line2": "2 69293  51.8969 252.7764 0009543 303.4868  83.3028 14.89868069  5171"
  },
  {
    "name": "KUIPER-00618",
    "noradId": "69294",
    "line1": "1 69294U 26118AD  26201.84497150  .00015368  00000+0  41906-3 0  9992",
    "line2": "2 69294  51.8713 250.2585 0000943 353.8009   6.2966 15.37641455  9164"
  },
  {
    "name": "KUIPER-00620",
    "noradId": "69295",
    "line1": "1 69295U 26118AE  26202.25003472 -.00025368  00000+0 -73156-3 0  9994",
    "line2": "2 69295  51.8717 248.1725 0001178 301.1094 210.5757 15.34819836  2373"
  },
  {
    "name": "KUIPER-00423",
    "noradId": "69592",
    "line1": "1 69592U 26140A   26202.09341165  .00026605  00000+0  69337-3 0  9994",
    "line2": "2 69592  51.8793 234.4830 0013827 291.8244  68.1273 15.38578782  6457"
  },
  {
    "name": "KUIPER-00428",
    "noradId": "69593",
    "line1": "1 69593U 26140B   26201.81294214  .00013201  00000+0  36847-3 0  9994",
    "line2": "2 69593  51.8796 236.3415 0008122  48.9308 311.2380 15.37029240  6400"
  },
  {
    "name": "KUIPER-00481",
    "noradId": "69594",
    "line1": "1 69594U 26140C   26201.58696149  .00004324  00000+0  12450-3 0  9992",
    "line2": "2 69594  51.8786 237.0855 0010893 310.2671  49.7363 15.37897687  6370"
  },
  {
    "name": "KUIPER-00490",
    "noradId": "69595",
    "line1": "1 69595U 26140D   26201.79173019  .00016527  00000+0  44485-3 0  9993",
    "line2": "2 69595  51.8758 236.1933 0007350 358.5273   1.5691 15.37966683  6401"
  },
  {
    "name": "KUIPER-00493",
    "noradId": "69596",
    "line1": "1 69596U 26140E   26202.25003472 -.00016385  00000+0 -55068-3 0  9994",
    "line2": "2 69596  51.8836 234.4192 0008918  58.7230 106.2790 15.29625474  5874"
  },
  {
    "name": "KUIPER-00496",
    "noradId": "69597",
    "line1": "1 69597U 26140F   26202.11340799  .00012439  00000+0  38207-3 0  9996",
    "line2": "2 69597  51.8761 235.3378 0011104  70.6825 289.5361 15.34045223  6449"
  },
  {
    "name": "KUIPER-00513",
    "noradId": "69598",
    "line1": "1 69598U 26140G   26201.46281296  .00011412  00000+0  30799-3 0  9998",
    "line2": "2 69598  51.8789 237.7530 0007838 356.1197   3.9728 15.38226965  6352"
  },
  {
    "name": "KUIPER-00516",
    "noradId": "69599",
    "line1": "1 69599U 26140H   26202.12295706  .00015865  00000+0  43141-3 0  9995",
    "line2": "2 69599  51.8779 234.6683 0007368  15.2824 344.8384 15.37684636  6453"
  },
  {
    "name": "KUIPER-00517",
    "noradId": "69600",
    "line1": "1 69600U 26140J   26201.44558600  .00016247  00000+0  42506-3 0  9996",
    "line2": "2 69600  51.8759 237.6291 0010604 312.3615  47.6473 15.38832216  6354"
  },
  {
    "name": "KUIPER-00520",
    "noradId": "69601",
    "line1": "1 69601U 26140K   26202.12362351  .00019158  00000+0  51772-3 0  9998",
    "line2": "2 69601  51.8795 234.6843 0007075  16.4399 343.6816 15.37734365  6450"
  },
  {
    "name": "KUIPER-00522",
    "noradId": "69602",
    "line1": "1 69602U 26140L   26201.37796947  .00016581  00000+0  43558-3 0  9997",
    "line2": "2 69602  51.8770 237.9323 0012648 285.9720  73.9874 15.38666541  6342"
  },
  {
    "name": "KUIPER-00528",
    "noradId": "69603",
    "line1": "1 69603U 26140M   26202.25728637 -.00068305  00000+0 -18598-2 0  9995",
    "line2": "2 69603  51.8774 234.0660 0003975 357.0449   3.0514 15.37064020  6473"
  },
  {
    "name": "KUIPER-00532",
    "noradId": "69604",
    "line1": "1 69604U 26140N   26201.49156928  .00016644  00000+0  46864-3 0  9994",
    "line2": "2 69604  51.8777 237.9299 0005386  45.1343 315.0080 15.36570698  6356"
  },
  {
    "name": "KUIPER-00533",
    "noradId": "69605",
    "line1": "1 69605U 26140P   26201.45843611  .00016373  00000+0  43530-3 0  9999",
    "line2": "2 69605  51.8768 237.7184 0008086 346.1760  13.9005 15.38352154  6353"
  },
  {
    "name": "KUIPER-00534",
    "noradId": "69606",
    "line1": "1 69606U 26140Q   26201.82698850  .00021929  00000+0  56941-3 0  9997",
    "line2": "2 69606  51.8802 235.7020 0013373 289.1220  70.8319 15.38814753  6417"
  },
  {
    "name": "KUIPER-00537",
    "noradId": "69607",
    "line1": "1 69607U 26140R   26202.25003472 -.00721005  00000+0 -26474-1 0  9996",
    "line2": "2 69607  51.8809 234.7042 0009520  74.5939 321.7128 15.29990777  5775"
  }
]